STARLINK-36957          
1 67989U 26039D   26077.25002315 -.01855391  00000+0 -19410-1 0  9998
2 67989  42.9997   2.7003 0001117 271.9086 256.6814 15.66556844  4259
STARLINK-36951          
1 67990U 26039E   26077.25002315 -.01845495  00000+0 -22662-1 0  9997
2 67990  42.9996   2.8399 0001474 276.4299 196.3196 15.62548951  4250
STARLINK-36941          
1 67991U 26039F   26077.25002315  .00115545  00000+0  19516-2 0  9996
2 67991  42.9998   3.5455 0001211 261.6545 285.3422 15.50503698  4250
STARLINK-36950          
1 67992U 26039G   26077.25002315 -.01837209  00000+0 -30084-1 0  9990
2 67992  43.0000   3.1903 0001409 259.6658  71.4426 15.55025303  4257
STARLINK-36975          
1 67993U 26039H   26077.25002315 -.01841033  00000+0 -28726-1 0  9991
2 67993  42.9999   3.1067 0001653 259.8052 104.8430 15.56320877  4256
STARLINK-36993          
1 67994U 26039J   26077.25002315 -.01842406  00000+0 -19105-1 0  9998
2 67994  42.9997   2.6399 0001123 269.0478 283.5740 15.66750679  4251
STARLINK-36968          
1 67995U 26039K   26077.25002315 -.02119602  00000+0 -37217-1 0  9999
2 67995  42.9997   3.2786 0002008 266.3456  29.1834 15.53061225  4254
STARLINK-36979          
1 67996U 26039L   26077.25002315 -.01886522  00000+0 -18362-1 0  9991
2 67996  43.0000   2.5799 0001318 265.7682 310.8084 15.68357626  4251
STARLINK-36994          
1 67997U 26039M   26077.25002315 -.01844130  00000+0 -22760-1 0  9998
2 67997  43.0000   2.7579 0001273 275.1585 229.6657 15.62419898  4254
STARLINK-36988          
1 67998U 26039N   26077.25002315 -.01845890  00000+0 -21866-1 0  9999
2 67998  42.9997   2.7270 0001265 272.4113 245.1073 15.63459087  4254
STARLINK-36926          
1 67999U 26039P   26077.25002315 -.01845409  00000+0 -22611-1 0  9995
2 67999  42.9996   2.7396 0001204 276.9737 235.2555 15.62607003  4254
STARLINK-36931          
1 68000U 26039Q   26077.25002315 -.01838044  00000+0 -19128-1 0  9995
2 68000  43.0000   2.5784 0001142 263.1616 313.8877 15.66656554  4259
