CCSDS_OMM_VERS = 2.0
CREATION_DATE  = 
ORIGINATOR     = 

OBJECT_NAME    = STARLINK-36957
OBJECT_ID      = 2026-039D
CENTER_NAME    = EARTH
REF_FRAME      = TEME
TIME_SYSTEM    = UTC
MEAN_ELEMENT_THEORY = SGP/SGP4

EPOCH          = 2026-03-18T06:00:02.000160
MEAN_MOTION    = 15.66556844
ECCENTRICITY   = .00011171
INCLINATION    = 42.9997
RA_OF_ASC_NODE = 2.7003
ARG_OF_PERICENTER = 271.9086
MEAN_ANOMALY   = 256.6814

EPHEMERIS_TYPE = 0
CLASSIFICATION_TYPE = U
NORAD_CAT_ID   = 67989
ELEMENT_SET_NO = 999
REV_AT_EPOCH   = 425
BSTAR          = -.19410297E-1
MEAN_MOTION_DOT = -.1855391E-1
MEAN_MOTION_DDOT = 0

CCSDS_OMM_VERS = 2.0
CREATION_DATE  = 
ORIGINATOR     = 

OBJECT_NAME    = STARLINK-36951
OBJECT_ID      = 2026-039E
CENTER_NAME    = EARTH
REF_FRAME      = TEME
TIME_SYSTEM    = UTC
MEAN_ELEMENT_THEORY = SGP/SGP4

EPOCH          = 2026-03-18T06:00:02.000160
MEAN_MOTION    = 15.62548951
ECCENTRICITY   = .00014743
INCLINATION    = 42.9996
RA_OF_ASC_NODE = 2.8399
ARG_OF_PERICENTER = 276.4299
MEAN_ANOMALY   = 196.3196

EPHEMERIS_TYPE = 0
CLASSIFICATION_TYPE = U
NORAD_CAT_ID   = 67990
ELEMENT_SET_NO = 999
REV_AT_EPOCH   = 425
BSTAR          = -.22661854E-1
MEAN_MOTION_DOT = -.1845495E-1
MEAN_MOTION_DDOT = 0

CCSDS_OMM_VERS = 2.0
CREATION_DATE  = 
ORIGINATOR     = 

OBJECT_NAME    = STARLINK-36941
OBJECT_ID      = 2026-039F
CENTER_NAME    = EARTH
REF_FRAME      = TEME
TIME_SYSTEM    = UTC
MEAN_ELEMENT_THEORY = SGP/SGP4

EPOCH          = 2026-03-18T06:00:02.000160
MEAN_MOTION    = 15.50503698
ECCENTRICITY   = .00012116
INCLINATION    = 42.9998
RA_OF_ASC_NODE = 3.5455
ARG_OF_PERICENTER = 261.6545
MEAN_ANOMALY   = 285.3422

EPHEMERIS_TYPE = 0
CLASSIFICATION_TYPE = U
NORAD_CAT_ID   = 67991
ELEMENT_SET_NO = 999
REV_AT_EPOCH   = 425
BSTAR          = .19516325E-2
MEAN_MOTION_DOT = .115545E-2
MEAN_MOTION_DDOT = 0

CCSDS_OMM_VERS = 2.0
CREATION_DATE  = 
ORIGINATOR     = 

OBJECT_NAME    = STARLINK-36950
OBJECT_ID      = 2026-039G
CENTER_NAME    = EARTH
REF_FRAME      = TEME
TIME_SYSTEM    = UTC
MEAN_ELEMENT_THEORY = SGP/SGP4

EPOCH          = 2026-03-18T06:00:02.000160
MEAN_MOTION    = 15.55025303
ECCENTRICITY   = .00014096
INCLINATION    = 43.0000
RA_OF_ASC_NODE = 3.1903
ARG_OF_PERICENTER = 259.6658
MEAN_ANOMALY   = 71.4426

EPHEMERIS_TYPE = 0
CLASSIFICATION_TYPE = U
NORAD_CAT_ID   = 67992
ELEMENT_SET_NO = 999
REV_AT_EPOCH   = 425
BSTAR          = -.30084209E-1
MEAN_MOTION_DOT = -.1837209E-1
MEAN_MOTION_DDOT = 0

CCSDS_OMM_VERS = 2.0
CREATION_DATE  = 
ORIGINATOR     = 

OBJECT_NAME    = STARLINK-36975
OBJECT_ID      = 2026-039H
CENTER_NAME    = EARTH
REF_FRAME      = TEME
TIME_SYSTEM    = UTC
MEAN_ELEMENT_THEORY = SGP/SGP4

EPOCH          = 2026-03-18T06:00:02.000160
MEAN_MOTION    = 15.56320877
ECCENTRICITY   = .00016533
INCLINATION    = 42.9999
RA_OF_ASC_NODE = 3.1067
ARG_OF_PERICENTER = 259.8052
MEAN_ANOMALY   = 104.8430

EPHEMERIS_TYPE = 0
CLASSIFICATION_TYPE = U
NORAD_CAT_ID   = 67993
ELEMENT_SET_NO = 999
REV_AT_EPOCH   = 425
BSTAR          = -.28726424E-1
MEAN_MOTION_DOT = -.1841033E-1
MEAN_MOTION_DDOT = 0

CCSDS_OMM_VERS = 2.0
CREATION_DATE  = 
ORIGINATOR     = 

OBJECT_NAME    = STARLINK-36993
OBJECT_ID      = 2026-039J
CENTER_NAME    = EARTH
REF_FRAME      = TEME
TIME_SYSTEM    = UTC
MEAN_ELEMENT_THEORY = SGP/SGP4

EPOCH          = 2026-03-18T06:00:02.000160
MEAN_MOTION    = 15.66750679
ECCENTRICITY   = .00011233
INCLINATION    = 42.9997
RA_OF_ASC_NODE = 2.6399
ARG_OF_PERICENTER = 269.0478
MEAN_ANOMALY   = 283.5740

EPHEMERIS_TYPE = 0
CLASSIFICATION_TYPE = U
NORAD_CAT_ID   = 67994
ELEMENT_SET_NO = 999
REV_AT_EPOCH   = 425
BSTAR          = -.19105483E-1
MEAN_MOTION_DOT = -.1842406E-1
MEAN_MOTION_DDOT = 0

CCSDS_OMM_VERS = 2.0
CREATION_DATE  = 
ORIGINATOR     = 

OBJECT_NAME    = STARLINK-36968
OBJECT_ID      = 2026-039K
CENTER_NAME    = EARTH
REF_FRAME      = TEME
TIME_SYSTEM    = UTC
MEAN_ELEMENT_THEORY = SGP/SGP4

EPOCH          = 2026-03-18T06:00:02.000160
MEAN_MOTION    = 15.53061225
ECCENTRICITY   = .00020087
INCLINATION    = 42.9997
RA_OF_ASC_NODE = 3.2786
ARG_OF_PERICENTER = 266.3456
MEAN_ANOMALY   = 29.1834

EPHEMERIS_TYPE = 0
CLASSIFICATION_TYPE = U
NORAD_CAT_ID   = 67995
ELEMENT_SET_NO = 999
REV_AT_EPOCH   = 425
BSTAR          = -.37217245E-1
MEAN_MOTION_DOT = -.2119602E-1
MEAN_MOTION_DDOT = 0

CCSDS_OMM_VERS = 2.0
CREATION_DATE  = 
ORIGINATOR     = 

OBJECT_NAME    = STARLINK-36979
OBJECT_ID      = 2026-039L
CENTER_NAME    = EARTH
REF_FRAME      = TEME
TIME_SYSTEM    = UTC
MEAN_ELEMENT_THEORY = SGP/SGP4

EPOCH          = 2026-03-18T06:00:02.000160
MEAN_MOTION    = 15.68357626
ECCENTRICITY   = .0001318
INCLINATION    = 43.0000
RA_OF_ASC_NODE = 2.5799
ARG_OF_PERICENTER = 265.7682
MEAN_ANOMALY   = 310.8084

EPHEMERIS_TYPE = 0
CLASSIFICATION_TYPE = U
NORAD_CAT_ID   = 67996
ELEMENT_SET_NO = 999
REV_AT_EPOCH   = 425
BSTAR          = -.18361774E-1
MEAN_MOTION_DOT = -.1886522E-1
MEAN_MOTION_DDOT = 0

CCSDS_OMM_VERS = 2.0
CREATION_DATE  = 
ORIGINATOR     = 

OBJECT_NAME    = STARLINK-36994
OBJECT_ID      = 2026-039M
CENTER_NAME    = EARTH
REF_FRAME      = TEME
TIME_SYSTEM    = UTC
MEAN_ELEMENT_THEORY = SGP/SGP4

EPOCH          = 2026-03-18T06:00:02.000160
MEAN_MOTION    = 15.62419898
ECCENTRICITY   = .00012731
INCLINATION    = 43.0000
RA_OF_ASC_NODE = 2.7579
ARG_OF_PERICENTER = 275.1585
MEAN_ANOMALY   = 229.6657

EPHEMERIS_TYPE = 0
CLASSIFICATION_TYPE = U
NORAD_CAT_ID   = 67997
ELEMENT_SET_NO = 999
REV_AT_EPOCH   = 425
BSTAR          = -.22760455E-1
MEAN_MOTION_DOT = -.184413E-1
MEAN_MOTION_DDOT = 0

CCSDS_OMM_VERS = 2.0
CREATION_DATE  = 
ORIGINATOR     = 

OBJECT_NAME    = STARLINK-36988
OBJECT_ID      = 2026-039N
CENTER_NAME    = EARTH
REF_FRAME      = TEME
TIME_SYSTEM    = UTC
MEAN_ELEMENT_THEORY = SGP/SGP4

EPOCH          = 2026-03-18T06:00:02.000160
MEAN_MOTION    = 15.63459087
ECCENTRICITY   = .00012654
INCLINATION    = 42.9997
RA_OF_ASC_NODE = 2.7270
ARG_OF_PERICENTER = 272.4113
MEAN_ANOMALY   = 245.1073

EPHEMERIS_TYPE = 0
CLASSIFICATION_TYPE = U
NORAD_CAT_ID   = 67998
ELEMENT_SET_NO = 999
REV_AT_EPOCH   = 425
BSTAR          = -.21865559E-1
MEAN_MOTION_DOT = -.184589E-1
MEAN_MOTION_DDOT = 0

CCSDS_OMM_VERS = 2.0
CREATION_DATE  = 
ORIGINATOR     = 

OBJECT_NAME    = STARLINK-36926
OBJECT_ID      = 2026-039P
CENTER_NAME    = EARTH
REF_FRAME      = TEME
TIME_SYSTEM    = UTC
MEAN_ELEMENT_THEORY = SGP/SGP4

EPOCH          = 2026-03-18T06:00:02.000160
MEAN_MOTION    = 15.62607003
ECCENTRICITY   = .00012048
INCLINATION    = 42.9996
RA_OF_ASC_NODE = 2.7396
ARG_OF_PERICENTER = 276.9737
MEAN_ANOMALY   = 235.2555

EPHEMERIS_TYPE = 0
CLASSIFICATION_TYPE = U
NORAD_CAT_ID   = 67999
ELEMENT_SET_NO = 999
REV_AT_EPOCH   = 425
BSTAR          = -.22611116E-1
MEAN_MOTION_DOT = -.1845409E-1
MEAN_MOTION_DDOT = 0

CCSDS_OMM_VERS = 2.0
CREATION_DATE  = 
ORIGINATOR     = 

OBJECT_NAME    = STARLINK-36931
OBJECT_ID      = 2026-039Q
CENTER_NAME    = EARTH
REF_FRAME      = TEME
TIME_SYSTEM    = UTC
MEAN_ELEMENT_THEORY = SGP/SGP4

EPOCH          = 2026-03-18T06:00:02.000160
MEAN_MOTION    = 15.66656554
ECCENTRICITY   = .00011423
INCLINATION    = 43.0000
RA_OF_ASC_NODE = 2.5784
ARG_OF_PERICENTER = 263.1616
MEAN_ANOMALY   = 313.8877

EPHEMERIS_TYPE = 0
CLASSIFICATION_TYPE = U
NORAD_CAT_ID   = 68000
ELEMENT_SET_NO = 999
REV_AT_EPOCH   = 425
BSTAR          = -.1912805E-1
MEAN_MOTION_DOT = -.1838044E-1
MEAN_MOTION_DDOT = 0

